{"type": "FeatureCollection", "features": [ {"type": "Feature", "properties": {"norad_id": 44506, "name": "GPS BIII-2  (PRN 18)", "group": "gnss", "lat": 53.09971386083597, "lon": 43.87022053855308, "alt_km": 20258.788170555523, "timestamp": "2025-12-11T07:02:23.973885+00:00", "meta": {"OBJECT_NAME": "GPS BIII-2  (PRN 18)", "OBJECT_ID": "2019-056A", "EPOCH": "2025-12-10T10:16:28.629696", "MEAN_MOTION": 2.00566128, "ECCENTRICITY": 0.00577597, "INCLINATION": 55.7221, "RA_OF_ASC_NODE": 338.6437, "ARG_OF_PERICENTER": 198.4903, "MEAN_ANOMALY": 332.7667, "EPHEMERIS_TYPE": 0, "CLASSIFICATION_TYPE": "U", "NORAD_CAT_ID": 44506, "ELEMENT_SET_NO": 999, "REV_AT_EPOCH": 4628, "BSTAR": 0, "MEAN_MOTION_DOT": -8.6e-07, "MEAN_MOTION_DDOT": 0}, "tle": {"line1": "1 44506U 19056A   25344.42810914 -.00000086  00000+0  00000+0 0  9990", "line2": "2 44506  55.7221 338.6437 0057759 198.4903 332.7667  2.00566128 46288"}}, "geometry": {"type": "Point", "coordinates": [43.87022053855308, 53.09971386083597]}}, {"type": "Feature", "properties": {"norad_id": 44542, "name": "BEIDOU-3 M24 (C46)", "group": "gnss", "lat": -8.091411959079814, "lon": -176.7754235683658, "alt_km": 21507.52970932193, "timestamp": "2025-12-11T07:02:23.973897+00:00", "meta": {"OBJECT_NAME": "BEIDOU-3 M24 (C46)", "OBJECT_ID": "2019-061A", "EPOCH": "2025-12-10T05:37:21.080064", "MEAN_MOTION": 1.86229306, "ECCENTRICITY": 0.0009591, "INCLINATION": 54.4003, "RA_OF_ASC_NODE": 189.1006, "ARG_OF_PERICENTER": 24.8037, "MEAN_ANOMALY": 335.3013, "EPHEMERIS_TYPE": 0, "CLASSIFICATION_TYPE": "U", "NORAD_CAT_ID": 44542, "ELEMENT_SET_NO": 999, "REV_AT_EPOCH": 4227, "BSTAR": 0, "MEAN_MOTION_DOT": 5.4e-07, "MEAN_MOTION_DDOT": 0}, "tle": {"line1": "1 44542U 19061A   25344.23427176  .00000054  00000+0  00000+0 0  9993", "line2": "2 44542  54.4003 189.1006 0009591  24.8037 335.3013  1.86229306 42270"}}, "geometry": {"type": "Point", "coordinates": [-176.7754235683658, -8.091411959079814]}}, {"type": "Feature", "properties": {"norad_id": 44543, "name": "BEIDOU-3 M23 (C45)", "group": "gnss", "lat": -53.75698004244623, "lon": 86.85261269294864, "alt_km": 21542.766538882377, "timestamp": "2025-12-11T07:02:23.973907+00:00", "meta": {"OBJECT_NAME": "BEIDOU-3 M23 (C45)", "OBJECT_ID": "2019-061B", "EPOCH": "2025-12-08T18:00:07.463232", "MEAN_MOTION": 1.8622754, "ECCENTRICITY": 0.00060873, "INCLINATION": 54.3989, "RA_OF_ASC_NODE": 189.119, "ARG_OF_PERICENTER": 23.0878, "MEAN_ANOMALY": 334.736, "EPHEMERIS_TYPE": 0, "CLASSIFICATION_TYPE": "U", "NORAD_CAT_ID": 44543, "ELEMENT_SET_NO": 999, "REV_AT_EPOCH": 4224, "BSTAR": 0, "MEAN_MOTION_DOT": 5e-07, "MEAN_MOTION_DDOT": 0}, "tle": {"line1": "1 44543U 19061B   25342.75008638  .00000050  00000+0  00000+0 0  9993", "line2": "2 44543  54.3989 189.1190 0006087  23.0878 334.7360  1.86227540 42241"}}, "geometry": {"type": "Point", "coordinates": [86.85261269294864, -53.75698004244623]}}, {"type": "Feature", "properties": {"norad_id": 44624, "name": "EUTELSAT 5 WEST B (EGNOS/PRN 121)", "group": "gnss", "lat": -0.02326802393456016, "lon": -179.18818352112976, "alt_km": 35783.61332329618, "timestamp": "2025-12-11T07:02:23.973919+00:00", "meta": {"OBJECT_NAME": "EUTELSAT 5 WEST B (EGNOS/PRN 121)", "OBJECT_ID": "2019-067A", "EPOCH": "2025-12-10T21:43:38.678592", "MEAN_MOTION": 1.00271486, "ECCENTRICITY": 0.00034352, "INCLINATION": 0.063, "RA_OF_ASC_NODE": 345.5119, "ARG_OF_PERICENTER": 275.2352, "MEAN_ANOMALY": 140.0368, "EPHEMERIS_TYPE": 0, "CLASSIFICATION_TYPE": "U", "NORAD_CAT_ID": 44624, "ELEMENT_SET_NO": 999, "REV_AT_EPOCH": 2254, "BSTAR": 0, "MEAN_MOTION_DOT": -3.7e-07, "MEAN_MOTION_DDOT": 0}, "tle": {"line1": "1 44624U 19067A   25344.90530878 -.00000037  00000+0  00000+0 0  9990", "line2": "2 44624   0.0630 345.5119 0003435 275.2352 140.0368  1.00271486 22544"}}, "geometry": {"type": "Point", "coordinates": [-179.18818352112976, -0.02326802393456016]}}, {"type": "Feature", "properties": {"norad_id": 44709, "name": "BEIDOU-3 IGSO-3 (C40)", "group": "gnss", "lat": 13.345368901091131, "lon": -67.59059083713261, "alt_km": 35980.71013491305, "timestamp": "2025-12-11T07:02:23.973934+00:00", "meta": {"OBJECT_NAME": "BEIDOU-3 IGSO-3 (C40)", "OBJECT_ID": "2019-073A", "EPOCH": "2025-11-20T07:11:22.740000", "MEAN_MOTION": 1.00250097, "ECCENTRICITY": 0.0044538, "INCLINATION": 55.163, "RA_OF_ASC_NODE": 283.159, "ARG_OF_PERICENTER": 191.5856, "MEAN_ANOMALY": 168.2409, "EPHEMERIS_TYPE": 0, "CLASSIFICATION_TYPE": "U", "NORAD_CAT_ID": 44709, "ELEMENT_SET_NO": 999, "REV_AT_EPOCH": 2236, "BSTAR": 0, "MEAN_MOTION_DOT": -2.06e-06, "MEAN_MOTION_DDOT": 0}, "tle": {"line1": "1 44709U 19073A   25324.29956875 -.00000206  00000+0  00000+0 0  9998", "line2": "2 44709  55.1630 283.1590 0044538 191.5856 168.2409  1.00250097 22360"}}, "geometry": {"type": "Point", "coordinates": [-67.59059083713261, 13.345368901091131]}}, {"type": "Feature", "properties": {"norad_id": 44793, "name": "BEIDOU-3 M22 (C44)", "group": "gnss", "lat": 53.46101792648251, "lon": 48.87326984622776, "alt_km": 21517.395278556, "timestamp": "2025-12-11T07:02:23.973949+00:00", "meta": {"OBJECT_NAME": "BEIDOU-3 M22 (C44)", "OBJECT_ID": "2019-078A", "EPOCH": "2025-12-10T01:47:05.181792", "MEAN_MOTION": 1.86231719, "ECCENTRICITY": 0.0005679, "INCLINATION": 54.1107, "RA_OF_ASC_NODE": 306.4794, "ARG_OF_PERICENTER": 23.2059, "MEAN_ANOMALY": 336.8105, "EPHEMERIS_TYPE": 0, "CLASSIFICATION_TYPE": "U", "NORAD_CAT_ID": 44793, "ELEMENT_SET_NO": 999, "REV_AT_EPOCH": 4112, "BSTAR": 0, "MEAN_MOTION_DOT": -8e-07, "MEAN_MOTION_DDOT": 0}, "tle": {"line1": "1 44793U 19078A   25344.07436553 -.00000080  00000+0  00000+0 0  9990", "line2": "2 44793  54.1107 306.4794 0005679  23.2059 336.8105  1.86231719 41120"}}, "geometry": {"type": "Point", "coordinates": [48.87326984622776, 53.46101792648251]}}, {"type": "Feature", "properties": {"norad_id": 44794, "name": "BEIDOU-3 M21 (C43)", "group": "gnss", "lat": 4.035830380456901, "lon": -50.68650404215457, "alt_km": 21517.436269147223, "timestamp": "2025-12-11T07:02:23.974008+00:00", "meta": {"OBJECT_NAME": "BEIDOU-3 M21 (C43)", "OBJECT_ID": "2019-078B", "EPOCH": "2025-12-09T03:18:47.736000", "MEAN_MOTION": 1.86227438, "ECCENTRICITY": 0.00038519, "INCLINATION": 54.0853, "RA_OF_ASC_NODE": 306.4778, "ARG_OF_PERICENTER": 10.0441, "MEAN_ANOMALY": 349.953, "EPHEMERIS_TYPE": 0, "CLASSIFICATION_TYPE": "U", "NORAD_CAT_ID": 44794, "ELEMENT_SET_NO": 999, "REV_AT_EPOCH": 4111, "BSTAR": 0, "MEAN_MOTION_DOT": -7.6e-07, "MEAN_MOTION_DDOT": 0}, "tle": {"line1": "1 44794U 19078B   25343.13805250 -.00000076  00000+0  00000+0 0  9996", "line2": "2 44794  54.0853 306.4778 0003851  10.0441 349.9530  1.86227438 41118"}}, "geometry": {"type": "Point", "coordinates": [-50.68650404215457, 4.035830380456901]}}, {"type": "Feature", "properties": {"norad_id": 44850, "name": "COSMOS 2544 (759)", "group": "gnss", "lat": -21.793151456297636, "lon": 69.50174866578463, "alt_km": 19131.15006679037, "timestamp": "2025-12-11T07:02:23.974027+00:00", "meta": {"OBJECT_NAME": "COSMOS 2544 (759)", "OBJECT_ID": "2019-088A", "EPOCH": "2025-12-09T10:44:40.855776", "MEAN_MOTION": 2.13101749, "ECCENTRICITY": 0.00136674, "INCLINATION": 65.4583, "RA_OF_ASC_NODE": 80.0686, "ARG_OF_PERICENTER": 249.2063, "MEAN_ANOMALY": 110.6639, "EPHEMERIS_TYPE": 0, "CLASSIFICATION_TYPE": "U", "NORAD_CAT_ID": 44850, "ELEMENT_SET_NO": 999, "REV_AT_EPOCH": 4667, "BSTAR": 0, "MEAN_MOTION_DOT": -1.3e-07, "MEAN_MOTION_DDOT": 0}, "tle": {"line1": "1 44850U 19088A   25343.44769509 -.00000013  00000+0  00000+0 0  9991", "line2": "2 44850  65.4583  80.0686 0013667 249.2063 110.6639  2.13101749 46678"}}, "geometry": {"type": "Point", "coordinates": [69.50174866578463, -21.793151456297636]}}, {"type": "Feature", "properties": {"norad_id": 44864, "name": "BEIDOU-3 M19 (C41)", "group": "gnss", "lat": -17.002936757265847, "lon": -99.26615671429082, "alt_km": 21525.764927335647, "timestamp": "2025-12-11T07:02:23.974039+00:00", "meta": {"OBJECT_NAME": "BEIDOU-3 M19 (C41)", "OBJECT_ID": "2019-090A", "EPOCH": "2025-12-10T11:02:30.931872", "MEAN_MOTION": 1.86231164, "ECCENTRICITY": 0.00178827, "INCLINATION": 56.3915, "RA_OF_ASC_NODE": 69.0363, "ARG_OF_PERICENTER": 285.2259, "MEAN_ANOMALY": 76.8475, "EPHEMERIS_TYPE": 0, "CLASSIFICATION_TYPE": "U", "NORAD_CAT_ID": 44864, "ELEMENT_SET_NO": 999, "REV_AT_EPOCH": 4072, "BSTAR": 0, "MEAN_MOTION_DOT": -5.5e-07, "MEAN_MOTION_DDOT": 0}, "tle": {"line1": "1 44864U 19090A   25344.46008023 -.00000055  00000+0  00000+0 0  9995", "line2": "2 44864  56.3915  69.0363 0017882 285.2259  76.8475  1.86231164 40725"}}, "geometry": {"type": "Point", "coordinates": [-99.26615671429082, -17.002936757265847]}}, {"type": "Feature", "properties": {"norad_id": 44865, "name": "BEIDOU-3 M20 (C42)", "group": "gnss", "lat": -51.372876586794824, "lon": 12.841036331697763, "alt_km": 21492.557874044414, "timestamp": "2025-12-11T07:02:23.974052+00:00", "meta": {"OBJECT_NAME": "BEIDOU-3 M20 (C42)", "OBJECT_ID": "2019-090B", "EPOCH": "2025-12-10T20:36:05.507712", "MEAN_MOTION": 1.86231317, "ECCENTRICITY": 0.00148967, "INCLINATION": 56.3937, "RA_OF_ASC_NODE": 69.0576, "ARG_OF_PERICENTER": 298.003, "MEAN_ANOMALY": 60.7372, "EPHEMERIS_TYPE": 0, "CLASSIFICATION_TYPE": "U", "NORAD_CAT_ID": 44865, "ELEMENT_SET_NO": 999, "REV_AT_EPOCH": 4070, "BSTAR": 0, "MEAN_MOTION_DOT": -5.8e-07, "MEAN_MOTION_DDOT": 0}, "tle": {"line1": "1 44865U 19090B   25344.85839708 -.00000058  00000+0  00000+0 0  9994", "line2": "2 44865  56.3937  69.0576 0014896 298.0030  60.7372  1.86231317 40703"}}, "geometry": {"type": "Point", "coordinates": [12.841036331697763, -51.372876586794824]}}]}